OBJECT_NAME,OBJECT_ID,EPOCH,MEAN_MOTION,ECCENTRICITY,INCLINATION,RA_OF_ASC_NODE,ARG_OF_PERICENTER,MEAN_ANOMALY,EPHEMERIS_TYPE,CLASSIFICATION_TYPE,NORAD_CAT_ID,ELEMENT_SET_NO,REV_AT_EPOCH,BSTAR,MEAN_MOTION_DOT,MEAN_MOTION_DDOT
SIRION PATHFINDER-2,2018-099B,2026-05-20T02:24:15.882048,15.14261771,.000976,97.4266,189.8279,46.3450,313.8589,0,U,43759,999,40837,.18665E-3,.3352E-4,0
CORVUS BC4,2018-099K,2026-05-20T01:39:11.751264,15.12238592,.0010073,97.4084,183.8747,98.2471,261.9903,0,U,43767,999,40815,.19248E-3,.3267E-4,0
M2 PATHFINDER,2020-037E,2026-05-19T18:46:54.502464,15.04537414,.00099656,97.8159,330.6972,245.4969,114.5217,0,U,45727,999,32122,.7660919E-4,.101E-4,0
NETSAT-4,2020-068U,2026-05-19T23:39:58.535424,15.42837670,.0007359,97.8614,145.9841,71.8774,288.3273,0,U,46504,999,31142,.3071E-3,.13384E-3,0
NETSAT-3,2020-068V,2026-05-19T23:17:16.301184,15.41613605,.0007455,97.8665,144.2200,84.7945,275.4151,0,U,46505,999,31133,.34632E-3,.14502E-3,0
NETSAT-1,2020-068W,2026-05-19T23:03:23.095008,15.33884394,.0006991,97.8752,138.8676,104.5342,255.6675,0,U,46506,999,31097,.29636E-3,.9635E-4,0
NETSAT-2,2020-068X,2026-05-19T22:23:21.697728,15.44683915,.0006258,97.8630,145.7245,94.9408,265.2554,0,U,46507,999,31137,.36879E-3,.17131E-3,0
GREENCUBE (IO-117),2022-080E,2026-05-19T09:23:51.020736,6.42583330,.00088396,70.1431,308.2634,296.5004,63.4749,0,U,53109,999,9021,0,-.3E-7,0
SITRO-AIS 5 (KATYS),2023-091L,2026-05-20T04:37:11.692416,15.28737548,.0011423,97.5069,203.8387,193.1844,166.9099,0,U,57176,999,16006,.31846E-3,.8838E-4,0
SITRO-AIS 6 (CHIRKIN),2023-091AC,2026-05-20T04:09:57.883104,15.25340270,.0011549,97.5077,203.0843,196.6514,163.4346,0,U,57192,999,16001,.28924E-3,.7231E-4,0
SITRO-AIS 8 (ANOKHIN),2023-091AD,2026-05-20T04:36:27.687168,15.31290100,.0010733,97.5065,205.3158,188.7331,171.3725,0,U,57193,999,16016,.33761E-3,.10144E-3,0
SITRO-AIS 7 (FARTUSHNIY),2023-091AE,2026-05-20T04:06:25.474752,15.25041756,.0011377,97.5074,202.9210,197.6929,162.3914,0,U,57194,999,16000,.27791E-3,.6882E-4,0
SITRO-AIS 10 (BURDAEV),2023-091AK,2026-05-20T03:26:10.224096,15.37439573,.0007675,97.5088,210.0386,162.6701,197.4807,0,U,57199,999,16045,.4055E-3,.14826E-3,0
SITRO-AIS 9 (SHCHUKIN),2023-091AM,2026-05-20T03:51:49.804704,15.36983324,.0007882,97.5086,209.8082,163.1182,197.0326,0,U,57201,999,16044,.38922E-3,.14019E-3,0
SITRO-AIS 12 (SMIRENNIY),2023-091AQ,2026-05-20T03:45:52.393824,15.37269281,.0007652,97.5099,210.2537,157.6155,202.5424,0,U,57204,999,16046,.40076E-3,.14571E-3,0
SITRO-AIS 11 (SHEFFER),2023-091AU,2026-05-20T04:15:59.582880,15.37667353,.0007566,97.5096,210.5046,157.3805,202.7774,0,U,57208,999,16048,.40706E-3,.14994E-3,0
SITRO-AIS 25,2024-039R,2026-05-20T04:01:49.486368,14.93306486,.0147231,95.3916,215.8407,66.4991,295.1628,0,U,59066,999,12054,.24724E-3,.3173E-4,0
SITRO-AIS 26,2024-039S,2026-05-20T03:58:21.214848,14.93108317,.014755,95.3917,215.7423,67.0543,294.6175,0,U,59067,999,12053,.24757E-3,.3163E-4,0
SITRO-AIS 27,2024-039T,2026-05-20T05:03:13.326624,14.93518362,.0146491,95.3918,216.0321,65.5918,296.0514,0,U,59068,999,12056,.24707E-3,.3182E-4,0
SITRO-AIS 28,2024-039U,2026-05-20T04:31:39.511200,14.93554102,.0146387,95.3919,216.0628,65.4909,296.1499,0,U,59071,999,12056,.20602E-3,.265E-4,0
GRBBETA,2024-128C,2026-05-19T19:29:31.098336,15.06380239,.00445314,61.9903,315.8018,128.7809,231.7275,0,U,60237,999,10199,.20656614E-3,.2903E-4,0
OOV-CUBE (TUBSAT-30),2024-128F,2026-05-20T00:59:15.853344,15.02613008,.0048163,61.9944,323.7064,127.6319,232.9157,0,U,60240,999,10188,.13318E-3,.1609E-4,0
ROBUSTA-3A (MEDITERRANEE),2024-128J,2026-05-19T21:15:37.149696,15.11183227,.0045333,61.9869,308.2934,122.6430,237.9051,0,U,60243,999,10214,.35934E-3,.5987E-4,0
LASARSAT,2024-247Q,2026-05-20T04:21:40.815360,15.44470942,.0005684,44.9759,59.3627,171.8355,188.2628,0,U,62391,999,7898,.50705E-3,.23734E-3,0
CROCUBE,2024-247T,2026-05-20T03:31:26.575104,15.46099852,.000542,44.9733,57.3164,174.7904,185.3043,0,U,62394,999,7900,.53126E-3,.26334E-3,0
FORESAIL-1 PRIME,2025-276DS,2026-05-19T15:53:27.007296,15.18409334,.00024446,97.4205,213.4600,166.7371,193.3928,0,U,66778,999,2607,.15098561E-3,.3039E-4,0
KNACKSAT-2,1998-067XZ,2026-05-20T01:48:34.303392,15.57316525,.0012132,51.6305,75.5950,96.2152,264.0222,0,U,67683,999,1589,.47884E-3,.35425E-3,0
