SIRION PATHFINDER-2     
1 43759U 18099B   26140.10018382  .00003352  00000+0  18665-3 0  9992
2 43759  97.4266 189.8279 0009760  46.3450 313.8589 15.14261771408376
CORVUS BC4              
1 43767U 18099K   26140.06888601  .00003267  00000+0  19248-3 0  9998
2 43767  97.4084 183.8747 0010073  98.2471 261.9903 15.12238592408157
M2 PATHFINDER           
1 45727U 20037E   26139.78257526  .00001010  00000+0  76609-4 0  9993
2 45727  97.8159 330.6972 0009965 245.4969 114.5217 15.04537414321229
NETSAT-4                
1 46504U 20068U   26139.98609416  .00013384  00000+0  30710-3 0  9991
2 46504  97.8614 145.9841 0007359  71.8774 288.3273 15.42837670311423
NETSAT-3                
1 46505U 20068V   26139.97032756  .00014502  00000+0  34632-3 0  9998
2 46505  97.8665 144.2200 0007455  84.7945 275.4151 15.41613605311332
NETSAT-1                
1 46506U 20068W   26139.96068397  .00009635  00000+0  29636-3 0  9997
2 46506  97.8752 138.8676 0006991 104.5342 255.6675 15.33884394310978
NETSAT-2                
1 46507U 20068X   26139.93289002  .00017131  00000+0  36879-3 0  9990
2 46507  97.8630 145.7245 0006258  94.9408 265.2554 15.44683915311370
GREENCUBE (IO-117)      
1 53109U 22080E   26139.39156274 -.00000003  00000+0  00000+0 0  9990
2 53109  70.1431 308.2634 0008839 296.5004  63.4749  6.42583330 90215
SITRO-AIS 5 (KATYS)     
1 57176U 23091L   26140.19249644  .00008838  00000+0  31846-3 0  9994
2 57176  97.5069 203.8387 0011423 193.1844 166.9099 15.28737548160069
SITRO-AIS 6 (CHIRKIN)   
1 57192U 23091AC  26140.17358661  .00007231  00000+0  28924-3 0  9999
2 57192  97.5077 203.0843 0011549 196.6514 163.4346 15.25340270160017
SITRO-AIS 8 (ANOKHIN)   
1 57193U 23091AD  26140.19198712  .00010144  00000+0  33761-3 0  9993
2 57193  97.5065 205.3158 0010733 188.7331 171.3725 15.31290100160160
SITRO-AIS 7 (FARTUSHNIY)
1 57194U 23091AE  26140.17112818  .00006882  00000+0  27791-3 0  9995
2 57194  97.5074 202.9210 0011377 197.6929 162.3914 15.25041756160007
SITRO-AIS 10 (BURDAEV)  
1 57199U 23091AK  26140.14317389  .00014826  00000+0  40550-3 0  9992
2 57199  97.5088 210.0386 0007675 162.6701 197.4807 15.37439573160457
SITRO-AIS 9 (SHCHUKIN)  
1 57201U 23091AM  26140.16099311  .00014019  00000+0  38922-3 0  9994
2 57201  97.5086 209.8082 0007882 163.1182 197.0326 15.36983324160445
SITRO-AIS 12 (SMIRENNIY)
1 57204U 23091AQ  26140.15685641  .00014571  00000+0  40076-3 0  9999
2 57204  97.5099 210.2537 0007652 157.6155 202.5424 15.37269281160469
SITRO-AIS 11 (SHEFFER)  
1 57208U 23091AU  26140.17777295  .00014994  00000+0  40706-3 0  9991
2 57208  97.5096 210.5046 0007566 157.3805 202.7774 15.37667353160485
SITRO-AIS 25            
1 59066U 24039R   26140.16793387  .00003173  00000+0  24724-3 0  9996
2 59066  95.3916 215.8407 0147231  66.4991 295.1628 14.93306486120540
SITRO-AIS 26            
1 59067U 24039S   26140.16552332  .00003163  00000+0  24757-3 0  9995
2 59067  95.3917 215.7423 0147550  67.0543 294.6175 14.93108317120536
SITRO-AIS 27            
1 59068U 24039T   26140.21057091  .00003182  00000+0  24707-3 0  9990
2 59068  95.3918 216.0321 0146491  65.5918 296.0514 14.93518362120562
SITRO-AIS 28            
1 59071U 24039U   26140.18865175  .00002650  00000+0  20602-3 0  9999
2 59071  95.3919 216.0628 0146387  65.4909 296.1499 14.93554102120565
GRBBETA                 
1 60237U 24128C   26139.81216549  .00002903  00000+0  20657-3 0  9998
2 60237  61.9903 315.8018 0044531 128.7809 231.7275 15.06380239101990
OOV-CUBE (TUBSAT-30)    
1 60240U 24128F   26140.04115571  .00001609  00000+0  13318-3 0  9990
2 60240  61.9944 323.7064 0048163 127.6319 232.9157 15.02613008101886
ROBUSTA-3A (MEDITERRAN*)
1 60243U 24128J   26139.88584664  .00005987  00000+0  35934-3 0  9997
2 60243  61.9869 308.2934 0045333 122.6430 237.9051 15.11183227102147
LASARSAT                
1 62391U 24247Q   26140.18172240  .00023734  00000+0  50705-3 0  9996
2 62391  44.9759  59.3627 0005684 171.8355 188.2628 15.44470942 78983
CROCUBE                 
1 62394U 24247T   26140.14683536  .00026334  00000+0  53126-3 0  9999
2 62394  44.9733  57.3164 0005420 174.7904 185.3043 15.46099852 79004
FORESAIL-1 PRIME        
1 66778U 25276DS  26139.66211814  .00003039  00000+0  15099-3 0  9997
2 66778  97.4205 213.4600 0002444 166.7371 193.3928 15.18409334 26072
KNACKSAT-2              
1 67683U 98067XZ  26140.07539703  .00035425  00000+0  47884-3 0  9999
2 67683  51.6305  75.5950 0012132  96.2152 264.0222 15.57316525 15898
